SAUDISAT 1C (SO-50)     
1 27607U 02058C   26193.91399670  .00000395  00000+0  64575-4 0  9999
2 27607  64.5517  49.3840 0074595 257.6999 101.5749 14.83095930268271
SAUDISAT 2              
1 28371U 04025F   26193.92471529  .00000116  00000+0  36925-4 0  9998
2 28371  98.5519 194.5729 0023952 215.3313 144.6297 14.56697582169491
SAUDISAT 3              
1 31118U 07012B   26193.82740336  .00000112  00000+0  26287-4 0  9990
2 31118  98.1466 144.2466 0015444 141.7880 218.4425 14.71439581 31513
PISAT                   
1 41784U 16059B   26193.95945558  .00000492  00000+0  91268-4 0  9990
2 41784  97.8189 193.3060 0030359 121.6643 238.7531 14.69027406523528
FLYING LAPTOP           
1 42831U 17042G   26194.18056238  .00001931  00000+0  15400-3 0  9993
2 42831  97.4792 348.7338 0019781  38.9576 321.3069 15.01303935490353
SALSAT                  
1 46495U 20068K   26193.91391395  .00004828  00000+0  16824-3 0  9990
2 46495  97.8853 198.5521 0008922 201.3461 158.7407 15.30153171319292
