OBJECT_NAME,OBJECT_ID,EPOCH,MEAN_MOTION,ECCENTRICITY,INCLINATION,RA_OF_ASC_NODE,ARG_OF_PERICENTER,MEAN_ANOMALY,EPHEMERIS_TYPE,CLASSIFICATION_TYPE,NORAD_CAT_ID,ELEMENT_SET_NO,REV_AT_EPOCH,BSTAR,MEAN_MOTION_DOT,MEAN_MOTION_DDOT
SAUDISAT 1C (SO-50),2002-058C,2026-07-12T21:56:09.314880,14.83095930,.0074595,64.5517,49.3840,257.6999,101.5749,0,U,27607,999,26827,.64575E-4,.395E-5,0
SAUDISAT 2,2004-025F,2026-07-12T22:11:35.401056,14.56697582,.0023952,98.5519,194.5729,215.3313,144.6297,0,U,28371,999,16949,.36925E-4,.116E-5,0
SAUDISAT 3,2007-012B,2026-07-12T19:51:27.650304,14.71439581,.0015444,98.1466,144.2466,141.7880,218.4425,0,U,31118,999,3151,.26287E-4,.112E-5,0
PISAT,2016-059B,2026-07-12T23:01:36.962112,14.69027406,.0030359,97.8189,193.3060,121.6643,238.7531,0,U,41784,999,52352,.91268E-4,.492E-5,0
FLYING LAPTOP,2017-042G,2026-07-13T04:20:00.589632,15.01303935,.0019781,97.4792,348.7338,38.9576,321.3069,0,U,42831,999,49035,.154E-3,.1931E-4,0
SALSAT,2020-068K,2026-07-12T21:56:02.165280,15.30153171,.0008922,97.8853,198.5521,201.3461,158.7407,0,U,46495,999,31929,.16824E-3,.4828E-4,0
